[{"OBJECT_NAME":"STARLINK-4020","OBJECT_ID":"2022-053AZ","EPOCH":"2026-03-09T11:25:22.360800","MEAN_MOTION":15.08833448,"ECCENTRICITY":0.00013167,"INCLINATION":53.2167,"RA_OF_ASC_NODE":135.092,"ARG_OF_PERICENTER":101.7378,"MEAN_ANOMALY":258.3762,"EPHEMERIS_TYPE":0,"CLASSIFICATION_TYPE":"U","NORAD_CAT_ID":52703,"ELEMENT_SET_NO":999,"REV_AT_EPOCH":21000,"BSTAR":-3.5370036e-5,"MEAN_MOTION_DOT":-8.51e-6,"MEAN_MOTION_DDOT":0},{"OBJECT_NAME":"FENGYUN 1C DEB","OBJECT_ID":"1999-025CFL","EPOCH":"2026-03-09T13:21:18.531072","MEAN_MOTION":14.04672964,"ECCENTRICITY":0.04686899,"INCLINATION":98.6297,"RA_OF_ASC_NODE":293.4954,"ARG_OF_PERICENTER":18.1684,"MEAN_ANOMALY":343.5617,"EPHEMERIS_TYPE":0,"CLASSIFICATION_TYPE":"U","NORAD_CAT_ID":31761,"ELEMENT_SET_NO":999,"REV_AT_EPOCH":59329,"BSTAR":0.0014536026,"MEAN_MOTION_DOT":6.265e-5,"MEAN_MOTION_DDOT":0}]
